CELESTIS-02             
1 25160U 98007D   22198.29862826 -.00000011  00000+0  52707-4 0  9990
2 25160 107.9852 326.8364 0061036  58.2848 333.1345 14.21634275267104
CELESTIS-03             
1 26034U 99070C   22198.47473607  .00018130  00000+0  84946-3 0  9996
2 26034  98.3111 207.4366 0010720  36.7619 323.4347 15.19725687225635
